C/2024 B2 (Lemmon),e,99.8735,294.3883,130.3187,1326,0.0000204,0.99692382,0.0000,10/05.4489/2023,2000,g 11.5,4.0
# From MPC185658
C/2024 C1 (PANSTARRS),e,14.2264,83.8107,94.5053,10.59219,0.0285907,0.58336816,14.0597,01/05.0/2026,2000,g 11.5,4.0
# From MPEC 2024-JU4
C/2024 C2 (PANSTARRS),e,27.2841,66.4514,87.6138,16.24454,0.0150537,0.44647838,4.4967,01/05.0/2026,2000,g  6.0,4.0
# From MPC184412
C/2024 C3 (PANSTARRS),e,22.4500,359.7005,159.7387,11.67804,0.0246973,0.42509515,19.4496,01/05.0/2026,2000,g  9.0,4.0
# From MPC185658
C/2024 D1 (Lemmon),e,132.4483,179.6554,125.7942,18615,0.0000004,0.99964053,0.0000,12/03.4944/2027,2000,g  7.3,4.0
# From MPEC 2025-YF1
C/2024 E1 (Wierzchos),h,01/20.7676/2026,75.2401,108.0796,243.6266,1.000071,0.566097,2000,7.0,4.0
# From MPEC 2024-JU4
C/2024 E2 (Bok),e,155.6528,135.6598,358.1927,51.22573,0.0026883,0.84972654,2.1569,01/05.0/2026,2000,g  8.0,4.0
# From MPC181183
P/2024 F1 (PANSTARRS),e,7.0073,251.5190,229.5883,3.446208,0.1540607,0.46023252,123.5894,01/05.0/2026,2000,g 16.0,4.0
# From MPC188411
C/2024 F2 (PANSTARRS),e,13.7444,138.9389,112.8789,9.945819,0.0314227,0.60111790,16.4991,01/05.0/2026,2000,g 11.0,4.0
# From MPEC 2024-UA9
P/2024 FG9 (Nanshan-Hahn),e,1.7311,253.0395,245.9475,3.258011,0.1676004,0.50999213,99.6422,01/05.0/2026,2000,g 14.0,4.0
# From MPC184412
C/2024 G1 (Wierzchos),e,95.3857,30.6050,128.2213,122.1389,0.0007302,0.96782310,0.3220,01/05.0/2026,2000,g 10.0,4.0
# From MPEC 2025-YF1
C/2024 G2 (ATLAS),e,122.1205,171.3989,328.7464,704.9979,0.0000527,0.99241365,0.0000,06/13.5944/2025,2000,g  7.0,4.0
# From MPC184412
C/2024 G3 (ATLAS),h,01/13.4227/2025,116.8464,220.3894,108.1548,1.000007,0.093631,2000,9.0,4.0
# From MPEC 2025-V36
C/2024 G4 (PANSTARRS),e,33.0278,152.9743,131.4135,3376,0.0000050,0.99854856,0.0000,03/21.5119/2026,2000,g  8.0,4.0
# From MPEC 2024-JC6
C/2024 G5 (Leonard),e,50.3881,316.3862,209.5974,600.8726,0.0000669,0.99508488,0.0000,09/07.1215/2024,2000,g 13.0,4.0
# From MPC188411
C/2024 G6 (ATLAS),h,02/20.6125/2026,120.4517,250.9509,23.4262,1.001842,6.430000,2000,5.5,4.0
# From MPC184412
C/2024 G7 (ATLAS),h,02/09.9869/2025,131.5101,191.9708,289.6516,1.001732,6.027477,2000,7.0,4.0
# From MPC181184
P/2024 J1 (PANSTARRS),e,13.1628,321.9380,200.3721,3.809016,0.1325821,0.30773547,104.1565,01/05.0/2026,2000,g 14.5,4.0
# From MPEC 2025-W75
C/2024 J2 (Wierzchos),e,79.2987,189.0608,143.1491,147.4344,0.0005506,0.98771562,0.0000,03/19.7582/2025,2000,g 11.5,4.0
# From MPEC 2025-YF1
C/2024 J3 (ATLAS),h,11/25.3907/2026,75.6414,285.9614,74.0887,1.000402,3.865428,2000,5.0,4.0
# From MPC188411
C/2024 J4 (Lemmon),e,117.5231,19.3117,127.8558,5622,0.0000023,0.99898699,0.0000,04/25.9483/2025,2000,g  8.0,4.0
# From MPC181184
P/2024 K1 (PANSTARRS),e,1.8204,251.6109,349.3704,6.834534,0.0551621,0.49065045,34.2293,01/05.0/2026,2000,g 13.5,4.0
# From MPC186631
C/2024 L1 (PANSTARRS),e,99.1576,45.1383,171.7819,11.46355,0.0253937,0.53347712,6.5258,01/05.0/2026,2000,g 10.0,4.0
# From MPC181184
C/2024 L2 (PANSTARRS),h,06/17.0976/2025,139.5848,266.1803,345.8684,1.004785,8.326143,2000,7.5,3.2
# From MPC181184
C/2024 L3 (PANSTARRS),h,11/23.6896/2023,111.5922,295.0038,59.0514,1.003844,6.857717,2000,9.5,4.0
# From MPEC 2025-YF1
C/2024 L5 (ATLAS),h,03/10.4421/2025,166.5732,139.1775,290.5289,1.037056,3.432787,2000,9.0,4.0
# From MPC188412
C/2024 M1 (ATLAS),e,73.7094,76.2158,345.5909,29.76224,0.0060702,0.94276089,2.4950,01/05.0/2026,2000,g 12.0,4.0
# From MPEC 2025-V36
C/2024 N1 (PANSTARRS),h,10/18.8887/2025,88.7813,323.0253,91.2563,1.001001,4.398461,2000,10.5,4.0
# From MPEC 2025-X35
C/2024 N3 (Sarneczky),h,04/11.5366/2025,88.7282,82.6106,86.8948,1.001893,5.014692,2000,8.0,4.0
# From MPEC 2025-X35
C/2024 N4 (Sarneczky),h,01/10.4011/2025,49.7822,339.6502,116.7389,1.004004,5.398530,2000,7.5,4.0
# From MPEC 2024-PC5
C/2024 O1 (PANSTARRS),h,01/28.1122/2023,59.0819,303.3458,349.8546,1.000168,6.605149,2000,8.5,4.0
# From MPEC 2024-UA9
P/2024 O2 (PANSTARRS),e,28.9791,6.8079,310.7651,7.377447,0.0491864,0.49879025,30.7430,01/05.0/2026,2000,g 12.0,4.0
# From MPC186632
C/2024 PN7 (PANSTARRS),e,101.2051,358.5844,74.2707,66.95542,0.0017990,0.97722935,0.0000,12/06.4083/2024,2000,g 15.2,4.0
# From MPEC 2024-UQ8
P/2024 Q1 (PANSTARRS),e,5.0031,22.9577,284.8624,3.527211,0.1487842,0.53430702,84.7121,01/05.0/2026,2000,g 17.0,4.0
# From MPC185660
C/2024 Q3 (PANSTARRS),h,03/05.2039/2025,121.3770,337.2888,70.1284,1.001351,2.091651,2000,15.0,4.0
# From MPC188412
C/2024 Q4 (PANSTARRS),e,3.3169,324.2640,133.0449,547.4463,0.0000769,0.99009996,0.0000,11/11.8643/2024,2000,g 10.0,4.0
# From MPEC 2024-TP3
P/2024 R1 (PANSTARRS),e,12.7165,84.9799,230.9555,3.463262,0.1529241,0.49275413,86.8358,01/05.0/2026,2000,g 18.0,4.0
# From MPC182883
P/2024 R2 (PANSTARRS),e,15.1202,192.9756,203.8355,3.147306,0.1765207,0.26873489,81.3097,01/05.0/2026,2000,g 15.5,4.0
# From MPC181185
P/2024 R3 (PANSTARRS),e,14.7001,33.0720,309.5726,3.202949,0.1719408,0.26799703,104.1605,01/05.0/2026,2000,g 15.0,4.0
# From MPEC 2025-YF1
C/2024 R4 (PANSTARRS),h,10/26.7296/2027,95.3731,345.9412,109.0038,1.002437,4.408720,2000,6.5,4.0
# From MPC188412
C/2024 S1 (ATLAS),e,142.2411,348.3556,70.1195,85.39969,0.0012489,0.99990674,0.0000,10/28.4124/2024,2000,g 15.5,4.0
# From MPC181185
P/2024 S2 (Rankin),e,7.5266,8.3341,49.1503,5.035605,0.0872221,0.59340076,41.4998,01/05.0/2026,2000,g 15.0,4.0
# From MPC182883
P/2024 T1 (Rankin),e,17.6201,279.7100,164.8725,6.598028,0.0581544,0.65332555,26.8461,01/05.0/2026,2000,g 14.5,4.0
# From MPC184413
P/2024 T2 (Rankin),e,12.9289,113.0598,343.8409,6.171868,0.0642805,0.68037963,25.2409,01/05.0/2026,2000,g 16.0,4.0
# From MPEC 2025-YF1
C/2024 T3 (PANSTARRS),e,53.4238,74.8178,336.8958,88.77431,0.0011783,0.95814118,0.3485,01/05.0/2026,2000,g 11.5,4.0
# From MPEC 2025-YF1
C/2024 T5 (ATLAS),h,05/06.2334/2027,52.3869,100.6787,352.4617,1.002232,3.840264,2000,5.5,4.0
# From MPC188412
C/2024 U1 (PANSTARRS),e,128.7557,270.2653,188.1043,482.9420,0.0000929,0.98998403,0.0000,06/30.5603/2024,2000,g 10.0,4.0
# From MPEC 2025-YF1
A/2024 U2,h,01/15.4676/2026,120.6673,56.0718,29.8358,1.003051,8.178936,2000,12.1,2.0
# From MPC185660
C/2024 V1 (Borisov),e,54.6250,328.1932,168.6762,231.7434,0.0002794,0.98999475,0.0000,04/04.1220/2025,2000,g 14.8,4.0
# From MPC182883
C/2024 W1 (PANSTARRS),e,83.2025,310.7247,256.7469,45.03951,0.0032607,0.94314304,0.9517,01/05.0/2026,2000,g 15.0,4.0
# From MPC182883
A/2024 W2,h,02/27.4287/2025,116.6119,241.9372,168.0108,1.002178,3.720946,2000,15.6,2.0
# From MPEC 2025-YF1
C/2024 X1 (Fazekas),e,6.4710,351.9284,124.3734,9.414306,0.0341210,0.59459700,5.2844,01/05.0/2026,2000,g 11.3,4.0
# From MPEC 2025-YF1
C/2024 X2 (ATLAS),e,109.2318,122.5186,315.8047,51.34559,0.0026789,0.92839730,0.4848,01/05.0/2026,2000,g  9.6,4.0
# From MPC185660
P/2024 X3 (PANSTARRS),e,2.9723,113.3626,352.9709,6.995296,0.0532715,0.62620282,25.8991,01/05.0/2026,2000,g 14.6,4.0
# From MPEC 2025-YF1
C/2024 X4 (PANSTARRS),e,34.6635,258.9459,153.3178,10.08823,0.0307597,0.64269085,3.8433,01/05.0/2026,2000,g 12.6,4.0
# From MPC186632
C/2024 XK14 (Bok),e,109.2126,239.0916,243.4944,17.01743,0.0140399,0.87896803,3.2161,01/05.0/2026,2000,g 15.5,4.0
# From MPEC 2025-YF1
A/2025 A1,h,03/13.6654/2027,33.4215,101.3288,68.1773,1.001827,5.340096,2000,11.3,2.0
# From MPC184414
P/2025 A2 (PANSTARRS),e,20.7343,189.3186,278.0615,5.083307,0.0859973,0.32193964,39.2414,01/05.0/2026,2000,g 13.2,4.0
# From MPC184414
C/2025 A3 (Tsuchinshan),e,9.9759,322.4309,222.3327,10.19923,0.0302589,0.43210296,357.9033,01/05.0/2026,2000,g  9.0,4.0
# From MPC185660
C/2025 A4 (PANSTARRS),e,32.0238,69.9155,102.8104,11.06305,0.0267850,0.65430895,9.5550,01/05.0/2026,2000,g 12.4,4.0
# From MPEC 2025-YF1
C/2025 A6 (Lemmon),e,143.6628,108.0980,132.9674,121.9844,0.0007316,0.99565603,0.0000,11/08.5383/2025,2000,g 13.2,4.0
# From MPC188413
A/2025 A7,e,133.6555,348.8596,195.5808,3458,0.0000048,0.99916613,0.0000,03/28.1031/2025,2000,g 14.9,2.0
# From MPC182885
C/2025 B1 (PANSTARRS),e,39.6807,102.8414,23.5262,77092,0.0000000,0.99995420,0.0000,06/26.7519/2025,2000,g 12.0,4.0
# From MPEC 2025-YF1
C/2025 B2 (Borisov),h,09/11.6306/2026,91.7451,84.8674,78.8501,1.001702,8.239151,2000,6.2,4.0
# From MPC188413
P/2025 C1 (ATLAS),e,7.5166,9.0958,186.8144,4.196756,0.1146393,0.34567900,38.1046,01/05.0/2026,2000,g 10.8,4.0
# From MPEC 2025-UQ3
C/2025 D1 (Groeller),h,05/21.3240/2028,84.4538,312.9022,185.9274,1.003153,14.117374,2000,1.2,4.0
# From MPEC 2025-UQ3
P/2025 D2 (PANSTARRS),e,5.3584,257.1790,318.3321,8.713412,0.0383197,0.15062020,315.2871,01/05.0/2026,2000,g  8.2,4.0
# From MPC186632
P/2025 D3 (PANSTARRS),e,9.6428,186.6340,294.5297,3.968025,0.1246931,0.25247932,65.8403,01/05.0/2026,2000,g 14.7,4.0
# From MPC188413
P/2025 D4 (ATLAS),e,15.9389,233.1180,332.8917,8.909298,0.0370629,0.63466822,12.0339,01/05.0/2026,2000,g 13.2,4.0
# From MPC184415
C/2025 D5 (PANSTARRS),e,73.3811,0.7335,211.4968,3301,0.0000052,0.99939047,0.0000,05/13.2956/2025,2000,g 17.6,4.0
# From MPEC 2025-UQ3
C/2025 D6 (ATLAS),e,145.7962,151.4918,285.4207,1201,0.0000237,0.99791528,0.0000,12/11.3745/2024,2000,g 13.2,4.0
# From MPEC 2025-YF1
C/2025 E1 (PANSTARRS),e,69.0609,344.5926,274.4215,1582,0.0000157,0.99747338,0.0000,09/23.7119/2026,2000,g  9.7,4.0
# From MPC185661
C/2025 F1 (ATLAS),e,109.2373,122.7055,334.2262,282.3676,0.0002077,0.99621066,0.0000,04/20.4602/2025,2000,g 18.0,4.0
# From MPC188413
C/2025 F2 (SWAN),h,05/01.1546/2025,90.3684,329.8317,153.8392,1.000138,0.333593,2000,11.2,4.0
# From MPEC 2025-YF1
C/2025 J1 (Borisov),e,95.4443,273.9766,166.6214,1292,0.0000212,0.99722776,0.0000,06/11.7962/2026,2000,g  9.1,4.0
# From MPEC 2025-XC1
C/2025 K1 (ATLAS),h,10/08.4405/2025,147.8641,97.5580,271.0220,1.000261,0.334200,2000,12.2,4.0
# From MPEC 2025-XC1
C/2025 K1-B,h,10/08.4466/2025,147.8920,97.5982,271.1642,1.001108,0.334916,2000,14.7,4.0
# From MPEC 2025-X93
C/2025 K1-C (ATLAS),e,147.8031,97.4604,270.6659,211.8052,0.0003197,0.99843103,0.0000,10/08.4316/2025,2000,g 12.2,4.0
# From MPEC 2025-XC1
